{
    "links": {
        "self": "http://www.neowsapp.com/rest/v1/neo/3825426?api_key=iIulBulltgU6a56xZRHN4H3l9WmuAYTsLGpBGhQ2"
    },
    "id": "3825426",
    "neo_reference_id": "3825426",
    "name": "(2018 MY4)",
    "designation": "2018 MY4",
    "nasa_jpl_url": "http://ssd.jpl.nasa.gov/sbdb.cgi?sstr=3825426",
    "absolute_magnitude_h": 22.7,
    "estimated_diameter": {
        "kilometers": {
            "estimated_diameter_min": 0.0766575574,
            "estimated_diameter_max": 0.1714115092
        },
        "meters": {
            "estimated_diameter_min": 76.6575573531,
            "estimated_diameter_max": 171.4115092306
        },
        "miles": {
            "estimated_diameter_min": 0.0476327831,
            "estimated_diameter_max": 0.1065101409
        },
        "feet": {
            "estimated_diameter_min": 251.5011804664,
            "estimated_diameter_max": 562.3737359442
        }
    },
    "is_potentially_hazardous_asteroid": false,
    "close_approach_data": [
        {
            "close_approach_date": "2018-06-16",
            "close_approach_date_full": "2018-Jun-16 20:41",
            "epoch_date_close_approach": 1529181660000,
            "relative_velocity": {
                "kilometers_per_second": "14.4472047832",
                "kilometers_per_hour": "52009.9372194134",
                "miles_per_hour": "32316.9523794739"
            },
            "miss_distance": {
                "astronomical": "0.1958339209",
                "lunar": "76.1793952301",
                "kilometers": "29296337.440388483",
                "miles": "18203899.9593997454"
            },
            "orbiting_body": "Earth"
        },
        {
            "close_approach_date": "2037-06-16",
            "close_approach_date_full": "2037-Jun-16 19:42",
            "epoch_date_close_approach": 2128794120000,
            "relative_velocity": {
                "kilometers_per_second": "14.2591142871",
                "kilometers_per_hour": "51332.8114336324",
                "miles_per_hour": "31896.212748859"
            },
            "miss_distance": {
                "astronomical": "0.2181502984",
                "lunar": "84.8604660776",
                "kilometers": "32634819.980504408",
                "miles": "20278336.8169125104"
            },
            "orbiting_body": "Earth"
        },
        {
            "close_approach_date": "2039-06-06",
            "close_approach_date_full": "2039-Jun-06 08:11",
            "epoch_date_close_approach": 2190960660000,
            "relative_velocity": {
                "kilometers_per_second": "22.1937256621",
                "kilometers_per_hour": "79897.4123836205",
                "miles_per_hour": "49645.1449335891"
            },
            "miss_distance": {
                "astronomical": "0.4900722284",
                "lunar": "190.6380968476",
                "kilometers": "73313761.514793508",
                "miles": "45555058.9891380904"
            },
            "orbiting_body": "Earth"
        }
    ],
    "orbital_data": {
        "orbit_id": "6",
        "orbit_determination_date": "2018-11-26 06:29:14",
        "first_observation_date": "2018-06-14",
        "last_observation_date": "2018-07-10",
        "data_arc_in_days": 26,
        "observations_used": 36,
        "orbit_uncertainty": "7",
        "minimum_orbit_intersection": ".169577",
        "jupiter_tisserand_invariant": "4.312",
        "epoch_osculation": "2459000.5",
        "eccentricity": ".2889856418297433",
        "semi_major_axis": "1.534469198281178",
        "inclination": "27.69048165084844",
        "ascending_node_longitude": "257.9706735789663",
        "orbital_period": "694.2816543290051",
        "perihelion_distance": "1.09102963214792",
        "perihelion_argument": "53.68872326313522",
        "aphelion_distance": "1.977908764414436",
        "perihelion_time": "2459035.206035795020",
        "mean_anomaly": "342.0041725021783",
        "mean_motion": ".5185215506636501",
        "equinox": "J2000",
        "orbit_class": {
            "orbit_class_type": "AMO",
            "orbit_class_description": "Near-Earth asteroid orbits similar to that of 1221 Amor",
            "orbit_class_range": "1.017 AU < q (perihelion) < 1.3 AU"
        }
    },
    "is_sentry_object": false
}